[{"OBJECT_NAME":"ONEWEB-0627","OBJECT_ID":"2023-004AE","EPOCH":"2025-08-12T00:02:37.639392","MEAN_MOTION":13.17649298,"ECCENTRICITY":0.0001758,"INCLINATION":87.9023,"RA_OF_ASC_NODE":67.4192,"ARG_OF_PERICENTER":106.5683,"MEAN_ANOMALY":253.5641,"EPHEMERIS_TYPE":0,"CLASSIFICATION_TYPE":"U","NORAD_CAT_ID":55168,"ELEMENT_SET_NO":999,"REV_AT_EPOCH":12686,"BSTAR":0.00016088,"MEAN_MOTION_DOT":7.5e-7,"MEAN_MOTION_DDOT":0},{"OBJECT_NAME":"ONEWEB-0628","OBJECT_ID":"2023-004AF","EPOCH":"2025-08-11T21:08:51.483552","MEAN_MOTION":13.12444194,"ECCENTRICITY":0.0002058,"INCLINATION":87.8862,"RA_OF_ASC_NODE":52.1249,"ARG_OF_PERICENTER":109.1072,"MEAN_ANOMALY":251.0279,"EPHEMERIS_TYPE":0,"CLASSIFICATION_TYPE":"U","NORAD_CAT_ID":55169,"ELEMENT_SET_NO":999,"REV_AT_EPOCH":12746,"BSTAR":0.00048633,"MEAN_MOTION_DOT":1.88e-6,"MEAN_MOTION_DDOT":0},{"OBJECT_NAME":"ONEWEB-0629","OBJECT_ID":"2023-004AG","EPOCH":"2025-08-11T19:48:40.856832","MEAN_MOTION":13.17650055,"ECCENTRICITY":0.0002098,"INCLINATION":87.9036,"RA_OF_ASC_NODE":67.4462,"ARG_OF_PERICENTER":91.031,"MEAN_ANOMALY":269.1062,"EPHEMERIS_TYPE":0,"CLASSIFICATION_TYPE":"U","NORAD_CAT_ID":55170,"ELEMENT_SET_NO":999,"REV_AT_EPOCH":12684,"BSTAR":2.6725e-5,"MEAN_MOTION_DOT":2.3e-7,"MEAN_MOTION_DDOT":0},{"OBJECT_NAME":"ONEWEB-0631","OBJECT_ID":"2023-004AH","EPOCH":"2025-08-11T12:36:00.072576","MEAN_MOTION":13.186877,"ECCENTRICITY":0.0001273,"INCLINATION":87.9131,"RA_OF_ASC_NODE":36.9345,"ARG_OF_PERICENTER":96.8823,"MEAN_ANOMALY":263.2454,"EPHEMERIS_TYPE":0,"CLASSIFICATION_TYPE":"U","NORAD_CAT_ID":55171,"ELEMENT_SET_NO":999,"REV_AT_EPOCH":12886,"BSTAR":0.0001024,"MEAN_MOTION_DOT":5.3e-7,"MEAN_MOTION_DDOT":0},{"OBJECT_NAME":"ONEWEB-0709","OBJECT_ID":"2023-004AJ","EPOCH":"2025-08-11T21:32:00.992544","MEAN_MOTION":13.11417295,"ECCENTRICITY":0.0001179,"INCLINATION":87.8791,"RA_OF_ASC_NODE":82.7348,"ARG_OF_PERICENTER":52.1942,"MEAN_ANOMALY":307.9292,"EPHEMERIS_TYPE":0,"CLASSIFICATION_TYPE":"U","NORAD_CAT_ID":55172,"ELEMENT_SET_NO":999,"REV_AT_EPOCH":12533,"BSTAR":0.0010961,"MEAN_MOTION_DOT":4.01e-6,"MEAN_MOTION_DDOT":0},{"OBJECT_NAME":"ONEWEB-0710","OBJECT_ID":"2023-004AK","EPOCH":"2025-08-11T21:58:42.051936","MEAN_MOTION":13.1764829,"ECCENTRICITY":0.0001729,"INCLINATION":87.9025,"RA_OF_ASC_NODE":67.4263,"ARG_OF_PERICENTER":92.3791,"MEAN_ANOMALY":267.7538,"EPHEMERIS_TYPE":0,"CLASSIFICATION_TYPE":"U","NORAD_CAT_ID":55173,"ELEMENT_SET_NO":999,"REV_AT_EPOCH":12685,"BSTAR":-3.3967e-5,"MEAN_MOTION_DOT":0,"MEAN_MOTION_DDOT":0},{"OBJECT_NAME":"ONEWEB-0711","OBJECT_ID":"2023-004AL","EPOCH":"2025-08-11T22:40:21.370656","MEAN_MOTION":13.11415612,"ECCENTRICITY":0.0001761,"INCLINATION":87.8789,"RA_OF_ASC_NODE":82.6927,"ARG_OF_PERICENTER":109.0893,"MEAN_ANOMALY":251.0425,"EPHEMERIS_TYPE":0,"CLASSIFICATION_TYPE":"U","NORAD_CAT_ID":55174,"ELEMENT_SET_NO":999,"REV_AT_EPOCH":12530,"BSTAR":-0.0015357,"MEAN_MOTION_DOT":-5.32e-6,"MEAN_MOTION_DDOT":0},{"OBJECT_NAME":"ONEWEB-0713","OBJECT_ID":"2023-004AM","EPOCH":"2025-08-12T13:46:09.935040","MEAN_MOTION":13.11418761,"ECCENTRICITY":0.00017,"INCLINATION":87.8788,"RA_OF_ASC_NODE":82.5746,"ARG_OF_PERICENTER":92.6028,"MEAN_ANOMALY":267.5295,"EPHEMERIS_TYPE":0,"CLASSIFICATION_TYPE":"U","NORAD_CAT_ID":55175,"ELEMENT_SET_NO":999,"REV_AT_EPOCH":12537,"BSTAR":-0.00047067,"MEAN_MOTION_DOT":-1.54e-6,"MEAN_MOTION_DDOT":0},{"OBJECT_NAME":"ONEWEB-0715","OBJECT_ID":"2023-004AN","EPOCH":"2025-08-11T22:59:53.250144","MEAN_MOTION":13.11418966,"ECCENTRICITY":0.0001411,"INCLINATION":87.8787,"RA_OF_ASC_NODE":82.6981,"ARG_OF_PERICENTER":79.6081,"MEAN_ANOMALY":280.5206,"EPHEMERIS_TYPE":0,"CLASSIFICATION_TYPE":"U","NORAD_CAT_ID":55176,"ELEMENT_SET_NO":999,"REV_AT_EPOCH":12533,"BSTAR":-0.0010871,"MEAN_MOTION_DOT":-3.73e-6,"MEAN_MOTION_DDOT":0},{"OBJECT_NAME":"ONEWEB-0716","OBJECT_ID":"2023-004AP","EPOCH":"2025-08-12T06:55:41.634912","MEAN_MOTION":13.17648998,"ECCENTRICITY":0.0001956,"INCLINATION":87.9027,"RA_OF_ASC_NODE":67.3515,"ARG_OF_PERICENTER":82.2365,"MEAN_ANOMALY":277.8988,"EPHEMERIS_TYPE":0,"CLASSIFICATION_TYPE":"U","NORAD_CAT_ID":55177,"ELEMENT_SET_NO":999,"REV_AT_EPOCH":12690,"BSTAR":-0.00068712,"MEAN_MOTION_DOT":-2.54e-6,"MEAN_MOTION_DDOT":0},{"OBJECT_NAME":"ONEWEB-0717","OBJECT_ID":"2023-004AQ","EPOCH":"2025-08-11T19:35:18.589632","MEAN_MOTION":13.17650246,"ECCENTRICITY":0.0001595,"INCLINATION":87.9033,"RA_OF_ASC_NODE":67.4059,"ARG_OF_PERICENTER":112.1815,"MEAN_ANOMALY":247.9486,"EPHEMERIS_TYPE":0,"CLASSIFICATION_TYPE":"U","NORAD_CAT_ID":55178,"ELEMENT_SET_NO":999,"REV_AT_EPOCH":12689,"BSTAR":-7.7605e-5,"MEAN_MOTION_DOT":-1.7e-7,"MEAN_MOTION_DDOT":0},{"OBJECT_NAME":"ONEWEB-0719","OBJECT_ID":"2023-004AR","EPOCH":"2025-08-11T21:39:15.463584","MEAN_MOTION":13.17648856,"ECCENTRICITY":0.0001999,"INCLINATION":87.9031,"RA_OF_ASC_NODE":67.3717,"ARG_OF_PERICENTER":85.8588,"MEAN_ANOMALY":274.2772,"EPHEMERIS_TYPE":0,"CLASSIFICATION_TYPE":"U","NORAD_CAT_ID":55179,"ELEMENT_SET_NO":999,"REV_AT_EPOCH":12685,"BSTAR":-1.3404e-5,"MEAN_MOTION_DOT":8.0e-8,"MEAN_MOTION_DDOT":0},{"OBJECT_NAME":"ONEWEB-0530","OBJECT_ID":"2023-029A","EPOCH":"2025-08-12T07:20:18.288672","MEAN_MOTION":13.20770372,"ECCENTRICITY":0.000219,"INCLINATION":87.9303,"RA_OF_ASC_NODE":336.0339,"ARG_OF_PERICENTER":112.1221,"MEAN_ANOMALY":248.0145,"EPHEMERIS_TYPE":0,"CLASSIFICATION_TYPE":"U","NORAD_CAT_ID":55796,"ELEMENT_SET_NO":999,"REV_AT_EPOCH":12108,"BSTAR":8.3842e-5,"MEAN_MOTION_DOT":4.7e-7,"MEAN_MOTION_DDOT":0},{"OBJECT_NAME":"ONEWEB-0534","OBJECT_ID":"2023-029B","EPOCH":"2025-08-11T20:07:36.014592","MEAN_MOTION":13.20770234,"ECCENTRICITY":0.0001998,"INCLINATION":87.9295,"RA_OF_ASC_NODE":336.1329,"ARG_OF_PERICENTER":96.5472,"MEAN_ANOMALY":263.5889,"EPHEMERIS_TYPE":0,"CLASSIFICATION_TYPE":"U","NORAD_CAT_ID":55797,"ELEMENT_SET_NO":999,"REV_AT_EPOCH":12031,"BSTAR":-7.2938e-5,"MEAN_MOTION_DOT":-1.7e-7,"MEAN_MOTION_DDOT":0},{"OBJECT_NAME":"ONEWEB-0556","OBJECT_ID":"2023-029C","EPOCH":"2025-08-12T01:43:57.023328","MEAN_MOTION":13.20772731,"ECCENTRICITY":0.0002725,"INCLINATION":87.9301,"RA_OF_ASC_NODE":336.0798,"ARG_OF_PERICENTER":100.2356,"MEAN_ANOMALY":259.9085,"EPHEMERIS_TYPE":0,"CLASSIFICATION_TYPE":"U","NORAD_CAT_ID":55798,"ELEMENT_SET_NO":999,"REV_AT_EPOCH":12103,"BSTAR":-2.9964e-5,"MEAN_MOTION_DOT":1.0e-8,"MEAN_MOTION_DDOT":0},{"OBJECT_NAME":"ONEWEB-0562","OBJECT_ID":"2023-029D","EPOCH":"2025-08-11T19:58:31.450080","MEAN_MOTION":13.20772082,"ECCENTRICITY":0.000268,"INCLINATION":87.9291,"RA_OF_ASC_NODE":336.118,"ARG_OF_PERICENTER":113.7393,"MEAN_ANOMALY":246.4022,"EPHEMERIS_TYPE":0,"CLASSIFICATION_TYPE":"U","NORAD_CAT_ID":55799,"ELEMENT_SET_NO":999,"REV_AT_EPOCH":12031,"BSTAR":-7.5335e-5,"MEAN_MOTION_DOT":-1.8e-7,"MEAN_MOTION_DDOT":0},{"OBJECT_NAME":"ONEWEB-0563","OBJECT_ID":"2023-029E","EPOCH":"2025-08-11T19:49:26.193504","MEAN_MOTION":13.20772608,"ECCENTRICITY":0.0002116,"INCLINATION":87.9301,"RA_OF_ASC_NODE":336.1369,"ARG_OF_PERICENTER":94.5012,"MEAN_ANOMALY":265.6363,"EPHEMERIS_TYPE":0,"CLASSIFICATION_TYPE":"U","NORAD_CAT_ID":55800,"ELEMENT_SET_NO":999,"REV_AT_EPOCH":12030,"BSTAR":5.0743e-5,"MEAN_MOTION_DOT":3.4e-7,"MEAN_MOTION_DDOT":0}]
