ONEWEB-0627             
1 55168U 23004AE  25224.00182453  .00000075  00000+0  16088-3 0  9999
2 55168  87.9023  67.4192 0001758 106.5683 253.5641 13.17649298126864
ONEWEB-0628             
1 55169U 23004AF  25223.88115143  .00000188  00000+0  48633-3 0  9993
2 55169  87.8862  52.1249 0002058 109.1072 251.0279 13.12444194127464
ONEWEB-0629             
1 55170U 23004AG  25223.82547288  .00000023  00000+0  26725-4 0  9995
2 55170  87.9036  67.4462 0002098  91.0310 269.1062 13.17650055126845
ONEWEB-0631             
1 55171U 23004AH  25223.52500084  .00000053  00000+0  10240-3 0  9993
2 55171  87.9131  36.9345 0001273  96.8823 263.2454 13.18687700128861
ONEWEB-0709             
1 55172U 23004AJ  25223.89723371  .00000401  00000+0  10961-2 0  9996
2 55172  87.8791  82.7348 0001179  52.1942 307.9292 13.11417295125335
ONEWEB-0710             
1 55173U 23004AK  25223.91576449  .00000000  00000+0 -33967-4 0  9991
2 55173  87.9025  67.4263 0001729  92.3791 267.7538 13.17648290126853
ONEWEB-0711             
1 55174U 23004AL  25223.94469179 -.00000532  00000+0 -15357-2 0  9998
2 55174  87.8789  82.6927 0001761 109.0893 251.0425 13.11415612125305
ONEWEB-0713             
1 55175U 23004AM  25224.57372610 -.00000154  00000+0 -47067-3 0  9996
2 55175  87.8788  82.5746 0001700  92.6028 267.5295 13.11418761125375
ONEWEB-0715             
1 55176U 23004AN  25223.95825521 -.00000373  00000+0 -10871-2 0  9997
2 55176  87.8787  82.6981 0001411  79.6081 280.5206 13.11418966125330
ONEWEB-0716             
1 55177U 23004AP  25224.28867633 -.00000254  00000+0 -68712-3 0  9991
2 55177  87.9027  67.3515 0001956  82.2365 277.8988 13.17648998126907
ONEWEB-0717             
1 55178U 23004AQ  25223.81618738 -.00000017  00000+0 -77605-4 0  9999
2 55178  87.9033  67.4059 0001595 112.1815 247.9486 13.17650246126899
ONEWEB-0719             
1 55179U 23004AR  25223.90226231  .00000008  00000+0 -13404-4 0  9999
2 55179  87.9031  67.3717 0001999  85.8588 274.2772 13.17648856126850
ONEWEB-0530             
1 55796U 23029A   25224.30576723  .00000047  00000+0  83842-4 0  9995
2 55796  87.9303 336.0339 0002190 112.1221 248.0145 13.20770372121081
ONEWEB-0534             
1 55797U 23029B   25223.83861128 -.00000017  00000+0 -72938-4 0  9992
2 55797  87.9295 336.1329 0001998  96.5472 263.5889 13.20770234120319
ONEWEB-0556             
1 55798U 23029C   25224.07218777  .00000001  00000+0 -29964-4 0  9999
2 55798  87.9301 336.0798 0002725 100.2356 259.9085 13.20772731121031
ONEWEB-0562             
1 55799U 23029D   25223.83230845 -.00000018  00000+0 -75335-4 0  9995
2 55799  87.9291 336.1180 0002680 113.7393 246.4022 13.20772082120317
ONEWEB-0563             
1 55800U 23029E   25223.82599761  .00000034  00000+0  50743-4 0  9994
2 55800  87.9301 336.1369 0002116  94.5012 265.6363 13.20772608120303
